OBJECT_NAME,OBJECT_ID,EPOCH,MEAN_MOTION,ECCENTRICITY,INCLINATION,RA_OF_ASC_NODE,ARG_OF_PERICENTER,MEAN_ANOMALY,EPHEMERIS_TYPE,CLASSIFICATION_TYPE,NORAD_CAT_ID,ELEMENT_SET_NO,REV_AT_EPOCH,BSTAR,MEAN_MOTION_DOT,MEAN_MOTION_DDOT
SIRION PATHFINDER-2,2018-099B,2026-06-28T14:40:09.765696,15.14645638,.00071867,97.4249,228.3971,256.2269,103.8163,0,U,43759,999,41435,.24867411E-3,.4534E-4,0
CORVUS BC4,2018-099K,2026-06-28T15:11:58.609536,15.12582601,.0007066,97.4060,222.2784,331.9729,28.1121,0,U,43767,999,41413,.20424297E-3,.3502E-4,0
M2 PATHFINDER,2020-037E,2026-06-28T11:38:16.828800,15.04720535,.00126159,97.8137,10.8430,113.4463,246.8090,0,U,45727,999,32719,.21990654E-3,.3038E-4,0
NETSAT-4,2020-068U,2026-06-28T14:17:44.876256,15.44235168,.00031684,97.8597,188.7552,275.0947,84.9938,0,U,46504,999,31753,.35507069E-3,.16231E-3,0
NETSAT-3,2020-068V,2026-06-28T13:05:55.798944,15.43063809,.00029548,97.8647,186.9037,304.8531,55.2438,0,U,46505,999,31743,.38522024E-3,.16936E-3,0
NETSAT-1,2020-068W,2026-06-28T13:05:00.922848,15.34894680,.00035755,97.8739,181.0994,353.8460,6.2738,0,U,46506,999,31704,.33653909E-3,.11307E-3,0
NETSAT-2,2020-068X,2026-06-28T13:19:01.619904,15.46477869,.00017199,97.8609,188.6480,339.5122,20.6057,0,U,46507,999,31749,.43132132E-3,.21319E-3,0
GREENCUBE (IO-117),2022-080E,2026-06-27T18:25:18.466176,6.42583239,.00089839,70.1441,294.5656,287.3296,72.6381,0,U,53109,999,9274,0,-.3E-7,0
SITRO-AIS 5 (KATYS),2023-091L,2026-06-28T14:00:45.470304,15.29711953,.00122688,97.5062,243.5928,67.9984,292.2558,0,U,57176,999,16608,.40661541E-3,.11658E-3,0
SITRO-AIS 6 (CHIRKIN),2023-091AC,2026-06-28T14:08:30.297120,15.26146922,.0012711,97.5068,242.6564,71.2571,289.0046,0,U,57192,999,16602,.38004617E-3,.9767E-4,0
SITRO-AIS 8 (ANOKHIN),2023-091AD,2026-06-28T13:56:21.832800,15.32436950,.00111863,97.5058,245.2249,64.2529,295.9866,0,U,57193,999,16619,.42290874E-3,.13199E-3,0
SITRO-AIS 7 (FARTUSHNIY),2023-091AE,2026-06-28T14:16:25.125600,15.25829642,.00126098,97.5065,242.4810,72.1824,288.0789,0,U,57194,999,16601,.37036224E-3,.9424E-4,0
SITRO-AIS 10 (BURDAEV),2023-091AK,2026-06-28T13:32:11.740992,15.39028568,.00065477,97.5084,250.3804,44.7719,315.4054,0,U,57199,999,16651,.47443993E-3,.18286E-3,0
SITRO-AIS 9 (SHCHUKIN),2023-091AM,2026-06-28T14:15:29.458944,15.38532686,.00068096,97.5082,250.1321,44.5782,315.6010,0,U,57201,999,16650,.49437575E-3,.18754E-3,0
SITRO-AIS 12 (SMIRENNIY),2023-091AQ,2026-06-28T13:58:51.424896,15.38823417,.00063056,97.5095,250.5946,39.1695,321.0006,0,U,57204,999,16652,.46358788E-3,.17744E-3,0
SITRO-AIS 11 (SHEFFER),2023-091AU,2026-06-28T12:39:59.913792,15.39253785,.00061649,97.5092,250.7924,39.2758,320.8934,0,U,57208,999,16653,.48238445E-3,.1873E-3,0
SITRO-AIS 25,2024-039R,2026-06-28T15:09:49.298976,14.93564543,.01425178,95.3905,242.9572,288.2453,70.3307,0,U,59066,999,12643,.17382457E-3,.2201E-4,0
SITRO-AIS 26,2024-039S,2026-06-28T15:14:03.323616,14.93358886,.01428564,95.3906,242.8544,288.8375,69.7403,0,U,59067,999,12642,.17659551E-3,.2226E-4,0
SITRO-AIS 27,2024-039T,2026-06-28T14:26:34.960128,14.93783083,.01417689,95.3913,243.1088,287.5392,71.0386,0,U,59068,999,12644,.19820235E-3,.2525E-4,0
SITRO-AIS 28,2024-039U,2026-06-28T15:30:11.524608,14.93814405,.01417366,95.3909,243.1869,287.1972,71.3779,0,U,59071,999,12645,.20749867E-3,.2647E-4,0
GRBBETA,2024-128C,2026-06-28T13:39:03.264192,15.06704815,.00391744,61.9878,176.3313,137.0222,223.3943,0,U,60237,999,10798,.20587258E-3,.2905E-4,0
OOV-CUBE (TUBSAT-30),2024-128F,2026-06-28T08:48:26.031744,15.02811881,.00432378,61.9924,186.5879,136.2488,224.2043,0,U,60240,999,10779,.14068964E-3,.1714E-4,0
ROBUSTA-3A (MEDITERRANEE),2024-128J,2026-06-28T05:56:00.522528,15.11776553,.00399593,61.9839,169.1282,130.4551,230.0040,0,U,60243,999,10809,.30906551E-3,.5175E-4,0
LASARSAT,2024-247Q,2026-06-28T11:20:26.592864,15.47012581,.00070173,44.9719,198.7678,41.2336,318.9083,0,U,62391,999,8506,.56739697E-3,.29081E-3,0
CROCUBE,2024-247T,2026-06-28T07:51:18.669024,15.48984330,.00068544,44.9690,196.7325,45.5250,314.6200,0,U,62394,999,8507,.62422395E-3,.34355E-3,0
FORESAIL-1 PRIME,2025-276DS,2026-06-28T04:43:54.593760,15.18798003,.0003854,97.4203,252.2666,81.3072,278.8599,0,U,66778,999,3207,.22144365E-3,.454E-4,0
KNACKSAT-2,1998-067XZ,2026-06-28T10:18:38.298816,15.60960095,.00086329,51.6279,237.8875,266.0603,93.9403,0,U,67683,999,2203,.51602585E-3,.43917E-3,0
