SIRION PATHFINDER-2     
1 43759U 18099B   26179.61122414  .00004534  00000+0  24867-3 0  9996
2 43759  97.4249 228.3971 0007186 256.2269 103.8163 15.14645638414353
CORVUS BC4              
1 43767U 18099K   26179.63331724  .00003502  00000+0  20424-3 0  9992
2 43767  97.4060 222.2784 0007066 331.9729  28.1121 15.12582601414134
M2 PATHFINDER           
1 45727U 20037E   26179.48491700  .00003038  00000+0  21991-3 0  9993
2 45727  97.8137  10.8430 0012615 113.4463 246.8090 15.04720535327198
NETSAT-4                
1 46504U 20068U   26179.59565829  .00016231  00000+0  35507-3 0  9994
2 46504  97.8597 188.7552 0003168 275.0947  84.9938 15.44235168317533
NETSAT-3                
1 46505U 20068V   26179.54578471  .00016936  00000+0  38522-3 0  9999
2 46505  97.8647 186.9037 0002954 304.8531  55.2438 15.43063809317435
NETSAT-1                
1 46506U 20068W   26179.54514957  .00011307  00000+0  33654-3 0  9997
2 46506  97.8739 181.0994 0003575 353.8460   6.2738 15.34894680317046
NETSAT-2                
1 46507U 20068X   26179.55487986  .00021319  00000+0  43132-3 0  9996
2 46507  97.8609 188.6480 0001719 339.5122  20.6057 15.46477869317492
GREENCUBE (IO-117)      
1 53109U 22080E   26178.76757484 -.00000003  00000+0  00000+0 0  9994
2 53109  70.1441 294.5656 0008983 287.3296  72.6381  6.42583239 92740
SITRO-AIS 5 (KATYS)     
1 57176U 23091L   26179.58385961  .00011658  00000+0  40662-3 0  9992
2 57176  97.5062 243.5928 0012268  67.9984 292.2558 15.29711953166089
SITRO-AIS 6 (CHIRKIN)   
1 57192U 23091AC  26179.58923955  .00009767  00000+0  38005-3 0  9997
2 57192  97.5068 242.6564 0012711  71.2571 289.0046 15.26146922166027
SITRO-AIS 8 (ANOKHIN)   
1 57193U 23091AD  26179.58080825  .00013199  00000+0  42291-3 0  9994
2 57193  97.5058 245.2249 0011186  64.2529 295.9866 15.32436950166190
SITRO-AIS 7 (FARTUSHNIY)
1 57194U 23091AE  26179.59473525  .00009424  00000+0  37036-3 0  9996
2 57194  97.5065 242.4810 0012609  72.1824 288.0789 15.25829642166013
SITRO-AIS 10 (BURDAEV)  
1 57199U 23091AK  26179.56402478  .00018286  00000+0  47444-3 0  9997
2 57199  97.5084 250.3804 0006547  44.7719 315.4054 15.39028568166510
SITRO-AIS 9 (SHCHUKIN)  
1 57201U 23091AM  26179.59409096  .00018754  00000+0  49438-3 0  9992
2 57201  97.5082 250.1321 0006809  44.5782 315.6010 15.38532686166506
SITRO-AIS 12 (SMIRENNIY)
1 57204U 23091AQ  26179.58253964  .00017744  00000+0  46359-3 0  9992
2 57204  97.5095 250.5946 0006305  39.1695 321.0006 15.38823417166527
SITRO-AIS 11 (SHEFFER)  
1 57208U 23091AU  26179.52777678  .00018730  00000+0  48238-3 0  9997
2 57208  97.5092 250.7924 0006164  39.2758 320.8934 15.39253785166534
SITRO-AIS 25            
1 59066U 24039R   26179.63182059  .00002201  00000+0  17382-3 0  9991
2 59066  95.3905 242.9572 0142517 288.2453  70.3307 14.93564543126432
SITRO-AIS 26            
1 59067U 24039S   26179.63476069  .00002226  00000+0  17660-3 0  9995
2 59067  95.3906 242.8544 0142856 288.8375  69.7403 14.93358886126426
SITRO-AIS 27            
1 59068U 24039T   26179.60179352  .00002525  00000+0  19820-3 0  9990
2 59068  95.3913 243.1088 0141768 287.5392  71.0386 14.93783083126447
SITRO-AIS 28            
1 59071U 24039U   26179.64596672  .00002647  00000+0  20750-3 0  9995
2 59071  95.3909 243.1869 0141736 287.1972  71.3779 14.93814405126451
GRBBETA                 
1 60237U 24128C   26179.56878778  .00002905  00000+0  20587-3 0  9996
2 60237  61.9878 176.3313 0039174 137.0222 223.3943 15.06704815107982
OOV-CUBE (TUBSAT-30)    
1 60240U 24128F   26179.36696796  .00001714  00000+0  14069-3 0  9991
2 60240  61.9924 186.5879 0043237 136.2488 224.2043 15.02811881107796
ROBUSTA-3A (MEDITERRAN*)
1 60243U 24128J   26179.24722827  .00005175  00000+0  30907-3 0  9990
2 60243  61.9839 169.1282 0039959 130.4551 230.0040 15.11776553108094
LASARSAT                
1 62391U 24247Q   26179.47253001  .00029081  00000+0  56740-3 0  9991
2 62391  44.9719 198.7678 0007017  41.2336 318.9083 15.47012581 85062
CROCUBE                 
1 62394U 24247T   26179.32729941  .00034355  00000+0  62422-3 0  9993
2 62394  44.9690 196.7325 0006854  45.5250 314.6200 15.48984330 85076
FORESAIL-1 PRIME        
1 66778U 25276DS  26179.19715965  .00004540  00000+0  22144-3 0  9992
2 66778  97.4203 252.2666 0003854  81.3072 278.8599 15.18798003 32073
KNACKSAT-2              
1 67683U 98067XZ  26179.42960994  .00043917  00000+0  51603-3 0  9999
2 67683  51.6279 237.8875 0008632 266.0603  93.9403 15.60960095 22030
